{
  "links" : {
    "next" : "https://api.nasa.gov/neo/rest/v1/feed?start_date=2014-09-16&end_date=2014-09-16&detailed=true&api_key=t0TVs3DtDT2H8Oy2Zy8m2eVrNsAVKAexjcZXUckd",
    "prev" : "https://api.nasa.gov/neo/rest/v1/feed?start_date=2014-09-14&end_date=2014-09-14&detailed=true&api_key=t0TVs3DtDT2H8Oy2Zy8m2eVrNsAVKAexjcZXUckd",
    "self" : "https://api.nasa.gov/neo/rest/v1/feed?start_date=2014-09-15&end_date=2014-09-15&detailed=true&api_key=t0TVs3DtDT2H8Oy2Zy8m2eVrNsAVKAexjcZXUckd"
  },
  "element_count" : 13,
  "near_earth_objects" : {
    "2014-09-15" : [ {
      "links" : {
        "self" : "https://api.nasa.gov/neo/rest/v1/neo/3674684?api_key=t0TVs3DtDT2H8Oy2Zy8m2eVrNsAVKAexjcZXUckd"
      },
      "neo_reference_id" : "3674684",
      "name" : "(2014 NE63)",
      "nasa_jpl_url" : "http://ssd.jpl.nasa.gov/sbdb.cgi?sstr=3674684",
      "absolute_magnitude_h" : 21.8,
      "estimated_diameter" : {
        "kilometers" : {
          "estimated_diameter_min" : 0.1160259082,
          "estimated_diameter_max" : 0.2594418179
        },
        "meters" : {
          "estimated_diameter_min" : 116.0259082094,
          "estimated_diameter_max" : 259.4418179074
        },
        "miles" : {
          "estimated_diameter_min" : 0.0720951346,
          "estimated_diameter_max" : 0.1612096218
        },
        "feet" : {
          "estimated_diameter_min" : 380.6624406898,
          "estimated_diameter_max" : 851.1870938635
        }
      },
      "is_potentially_hazardous_asteroid" : false,
      "close_approach_data" : [ {
        "close_approach_date" : "2014-09-15",
        "epoch_date_close_approach" : 1410764400000,
        "relative_velocity" : {
          "kilometers_per_second" : "6.9381505535",
          "kilometers_per_hour" : "24977.3419926301",
          "miles_per_hour" : "15519.9489731429"
        },
        "miss_distance" : {
          "astronomical" : "0.0992911031",
          "lunar" : "38.6242370605",
          "kilometers" : "14853737",
          "miles" : "9229685"
        },
        "orbiting_body" : "Earth"
      } ],
      "orbital_data" : {
        "orbit_id" : "39",
        "orbit_determination_date" : "2017-04-06 08:39:39",
        "orbit_uncertainty" : "5",
        "minimum_orbit_intersection" : ".0919256",
        "jupiter_tisserand_invariant" : "3.399",
        "epoch_osculation" : "2458000.5",
        "eccentricity" : ".5272141202464481",
        "semi_major_axis" : "2.277139839843026",
        "inclination" : "7.645339681763405",
        "ascending_node_longitude" : "329.2374210690818",
        "orbital_period" : "1255.113437519809",
        "perihelion_distance" : "1.076599562502047",
        "perihelion_argument" : "32.3385161682606",
        "aphelion_distance" : "3.477680117184005",
        "perihelion_time" : "2458184.266161320087",
        "mean_anomaly" : "307.2909650254722",
        "mean_motion" : ".2868266638204311",
        "equinox" : "J2000"
      }
    }, {
      "links" : {
        "self" : "https://api.nasa.gov/neo/rest/v1/neo/3675259?api_key=t0TVs3DtDT2H8Oy2Zy8m2eVrNsAVKAexjcZXUckd"
      },
      "neo_reference_id" : "3675259",
      "name" : "(2014 NP64)",
      "nasa_jpl_url" : "http://ssd.jpl.nasa.gov/sbdb.cgi?sstr=3675259",
      "absolute_magnitude_h" : 20.7,
      "estimated_diameter" : {
        "kilometers" : {
          "estimated_diameter_min" : 0.1925550782,
          "estimated_diameter_max" : 0.4305662442
        },
        "meters" : {
          "estimated_diameter_min" : 192.5550781879,
          "estimated_diameter_max" : 430.566244241
        },
        "miles" : {
          "estimated_diameter_min" : 0.1196481415,
          "estimated_diameter_max" : 0.2675413778
        },
        "feet" : {
          "estimated_diameter_min" : 631.7424027221,
          "estimated_diameter_max" : 1412.6189567557
        }
      },
      "is_potentially_hazardous_asteroid" : false,
      "close_approach_data" : [ {
        "close_approach_date" : "2014-09-15",
        "epoch_date_close_approach" : 1410764400000,
        "relative_velocity" : {
          "kilometers_per_second" : "15.4518898472",
          "kilometers_per_hour" : "55626.8034500615",
          "miles_per_hour" : "34564.3323992896"
        },
        "miss_distance" : {
          "astronomical" : "0.4921514273",
          "lunar" : "191.4469146729",
          "kilometers" : "73624808",
          "miles" : "45748336"
        },
        "orbiting_body" : "Earth"
      } ],
      "orbital_data" : {
        "orbit_id" : "6",
        "orbit_determination_date" : "2017-04-06 08:39:37",
        "orbit_uncertainty" : "6",
        "minimum_orbit_intersection" : ".160538",
        "jupiter_tisserand_invariant" : "3.054",
        "epoch_osculation" : "2458000.5",
        "eccentricity" : ".5808703536137914",
        "semi_major_axis" : "2.796560027042786",
        "inclination" : "1.757252962095722",
        "ascending_node_longitude" : "349.6859003008069",
        "orbital_period" : "1708.183983468531",
        "perihelion_distance" : "1.172121215232249",
        "perihelion_argument" : "336.3114861533761",
        "aphelion_distance" : "4.420998838853324",
        "perihelion_time" : "2458621.149576941002",
        "mean_anomaly" : "229.1980197325875",
        "mean_motion" : ".2107501320021785",
        "equinox" : "J2000"
      }
    }, {
      "links" : {
        "self" : "https://api.nasa.gov/neo/rest/v1/neo/3685814?api_key=t0TVs3DtDT2H8Oy2Zy8m2eVrNsAVKAexjcZXUckd"
      },
      "neo_reference_id" : "3685814",
      "name" : "(2014 RF11)",
      "nasa_jpl_url" : "http://ssd.jpl.nasa.gov/sbdb.cgi?sstr=3685814",
      "absolute_magnitude_h" : 23.7,
      "estimated_diameter" : {
        "kilometers" : {
          "estimated_diameter_min" : 0.0483676488,
          "estimated_diameter_max" : 0.1081533507
        },
        "meters" : {
          "estimated_diameter_min" : 48.3676488219,
          "estimated_diameter_max" : 108.1533506775
        },
        "miles" : {
          "estimated_diameter_min" : 0.0300542543,
          "estimated_diameter_max" : 0.0672033557
        },
        "feet" : {
          "estimated_diameter_min" : 158.6865169607,
          "estimated_diameter_max" : 354.8338390368
        }
      },
      "is_potentially_hazardous_asteroid" : false,
      "close_approach_data" : [ {
        "close_approach_date" : "2014-09-15",
        "epoch_date_close_approach" : 1410764400000,
        "relative_velocity" : {
          "kilometers_per_second" : "3.8375279608",
          "kilometers_per_hour" : "13815.1006588226",
          "miles_per_hour" : "8584.1662954779"
        },
        "miss_distance" : {
          "astronomical" : "0.0986463059",
          "lunar" : "38.3734130859",
          "kilometers" : "14757277",
          "miles" : "9169747"
        },
        "orbiting_body" : "Earth"
      } ],
      "orbital_data" : {
        "orbit_id" : "13",
        "orbit_determination_date" : "2017-04-06 08:38:47",
        "orbit_uncertainty" : "4",
        "minimum_orbit_intersection" : ".0966552",
        "jupiter_tisserand_invariant" : "5.111",
        "epoch_osculation" : "2458000.5",
        "eccentricity" : ".1318494707916238",
        "semi_major_axis" : "1.255552392749338",
        "inclination" : "7.082046768656618",
        "ascending_node_longitude" : "159.7824461042926",
        "orbital_period" : "513.866950631076",
        "perihelion_distance" : "1.090008474214181",
        "perihelion_argument" : "213.133003480609",
        "aphelion_distance" : "1.421096311284496",
        "perihelion_time" : "2457964.795684657477",
        "mean_anomaly" : "25.01338820782869",
        "mean_motion" : ".7005704483580562",
        "equinox" : "J2000"
      }
    } ]
  }
}